{
  "links" : {
    "next" : "https://api.nasa.gov/neo/rest/v1/neo/browse?page=48&size=20&api_key=jqAGvNAwUIBu4fl9FSOjdm3V4F7hIglRzI6pdX9d",
    "prev" : "https://api.nasa.gov/neo/rest/v1/neo/browse?page=46&size=20&api_key=jqAGvNAwUIBu4fl9FSOjdm3V4F7hIglRzI6pdX9d",
    "self" : "https://api.nasa.gov/neo/rest/v1/neo/browse?page=47&size=20&api_key=jqAGvNAwUIBu4fl9FSOjdm3V4F7hIglRzI6pdX9d"
  },
  "page" : {
    "size" : 20,
    "total_elements" : 20750,
    "total_pages" : 1038,
    "number" : 47
  },
  "near_earth_objects" : [ {
    "links" : {
      "self" : "https://api.nasa.gov/neo/rest/v1/neo/3430308?api_key=jqAGvNAwUIBu4fl9FSOjdm3V4F7hIglRzI6pdX9d"
    },
    "neo_reference_id" : "3430308",
    "name" : "(2008 TB4)",
    "designation" : "2008 TB4",
    "nasa_jpl_url" : "http://ssd.jpl.nasa.gov/sbdb.cgi?sstr=3430308",
    "absolute_magnitude_h" : 21.0,
    "estimated_diameter" : {
      "kilometers" : {
        "estimated_diameter_min" : 0.1677084622,
        "estimated_diameter_max" : 0.3750075218
      },
      "meters" : {
        "estimated_diameter_min" : 167.7084621628,
        "estimated_diameter_max" : 375.0075217981
      },
      "miles" : {
        "estimated_diameter_min" : 0.1042091748,
        "estimated_diameter_max" : 0.2330187988
      },
      "feet" : {
        "estimated_diameter_min" : 550.2246310023,
        "estimated_diameter_max" : 1230.3396778159
      }
    },
    "is_potentially_hazardous_asteroid" : false,
    "close_approach_data" : [ {
      "close_approach_date" : "2008-10-08",
      "epoch_date_close_approach" : 1223449200000,
      "relative_velocity" : {
        "kilometers_per_second" : "24.6513053213",
        "kilometers_per_hour" : "88744.6991566361",
        "miles_per_hour" : "55142.5048731887"
      },
      "miss_distance" : {
        "astronomical" : "0.113686693",
        "lunar" : "44.2241249084",
        "kilometers" : "17007288",
        "miles" : "10567839"
      },
      "orbiting_body" : "Earth"
    } ],
    "orbital_data" : {
      "orbit_id" : "11",
      "orbit_determination_date" : "2017-04-06 09:02:40",
      "first_observation_date" : "2008-10-07",
      "last_observation_date" : "2008-10-17",
      "data_arc_in_days" : 10,
      "observations_used" : 33,
      "orbit_uncertainty" : "9",
      "minimum_orbit_intersection" : ".0882685",
      "jupiter_tisserand_invariant" : "3.646",
      "epoch_osculation" : "2454749.5",
      "eccentricity" : ".4465869870981628",
      "semi_major_axis" : "1.820730676020307",
      "inclination" : "41.87526683756647",
      "ascending_node_longitude" : "194.412297797687",
      "orbital_period" : "897.3605868704693",
      "perihelion_distance" : "1.007616049099197",
      "perihelion_argument" : "138.3167961269112",
      "aphelion_distance" : "2.633845302941417",
      "perihelion_time" : "2454714.048219199372",
      "mean_anomaly" : "14.2224221510949",
      "mean_motion" : ".4011765228685764",
      "equinox" : "J2000",
      "orbit_class" : {
        "orbit_class_type" : "APO",
        "orbit_class_range" : "a (semi-major axis) > 1.0 AU; q (perihelion) < 1.017 AU",
        "orbit_class_description" : "Near-Earth asteroid orbits which cross the Earth’s orbit similar to that of 1862 Apollo"
      }
    },
    "is_sentry_object" : false
  }, {
    "links" : {
      "self" : "https://api.nasa.gov/neo/rest/v1/neo/3430382?api_key=jqAGvNAwUIBu4fl9FSOjdm3V4F7hIglRzI6pdX9d"
    },
    "neo_reference_id" : "3430382",
    "name" : "(2008 TF9)",
    "designation" : "2008 TF9",
    "nasa_jpl_url" : "http://ssd.jpl.nasa.gov/sbdb.cgi?sstr=3430382",
    "absolute_magnitude_h" : 20.8,
    "estimated_diameter" : {
      "kilometers" : {
        "estimated_diameter_min" : 0.1838886721,
        "estimated_diameter_max" : 0.411187571
      },
      "meters" : {
        "estimated_diameter_min" : 183.8886720703,
        "estimated_diameter_max" : 411.1875710413
      },
      "miles" : {
        "estimated_diameter_min" : 0.1142630881,
        "estimated_diameter_max" : 0.2555000322
      },
      "feet" : {
        "estimated_diameter_min" : 603.309310875,
        "estimated_diameter_max" : 1349.040630575
      }
    },
    "is_potentially_hazardous_asteroid" : false,
    "close_approach_data" : [ {
      "close_approach_date" : "2004-09-16",
      "epoch_date_close_approach" : 1095318000000,
      "relative_velocity" : {
        "kilometers_per_second" : "21.3998974903",
        "kilometers_per_hour" : "77039.6309651477",
        "miles_per_hour" : "47869.4306960941"
      },
      "miss_distance" : {
        "astronomical" : "0.4712392987",
        "lunar" : "183.3120880127",
        "kilometers" : "70496400",
        "miles" : "43804428"
      },
      "orbiting_body" : "Earth"
    }, {
      "close_approach_date" : "2008-09-25",
      "epoch_date_close_approach" : 1222326000000,
      "relative_velocity" : {
        "kilometers_per_second" : "23.2619686141",
        "kilometers_per_hour" : "83743.087010922",
        "miles_per_hour" : "52034.697592981"
      },
      "miss_distance" : {
        "astronomical" : "0.260325105",
        "lunar" : "101.2664642334",
        "kilometers" : "38944080",
        "miles" : "24198730"
      },
      "orbiting_body" : "Earth"
    } ],
    "orbital_data" : {
      "orbit_id" : "12",
      "orbit_determination_date" : "2017-04-06 09:02:39",
      "first_observation_date" : "2008-10-08",
      "last_observation_date" : "2008-10-27",
      "data_arc_in_days" : 19,
      "observations_used" : 41,
      "orbit_uncertainty" : "7",
      "minimum_orbit_intersection" : ".246061",
      "jupiter_tisserand_invariant" : "2.931",
      "epoch_osculation" : "2458600.5",
      "eccentricity" : ".5365843228792667",
      "semi_major_axis" : "2.549260887004554",
      "inclination" : "41.11029592247354",
      "ascending_node_longitude" : "5.874508005990427",
      "orbital_period" : "1486.688051150783",
      "perihelion_distance" : "1.181367460108616",
      "perihelion_argument" : "324.5587931220398",
      "aphelion_distance" : "3.917154313900491",
      "perihelion_time" : "2459172.793340837987",
      "mean_anomaly" : "221.4197493938291",
      "mean_motion" : ".2421489832526326",
      "equinox" : "J2000",
      "orbit_class" : {
        "orbit_class_type" : "AMO",
        "orbit_class_range" : "1.017 AU < q (perihelion) < 1.3 AU",
        "orbit_class_description" : "Near-Earth asteroid orbits similar to that of 1221 Amor"
      }
    },
    "is_sentry_object" : false
  }, {
    "links" : {
      "self" : "https://api.nasa.gov/neo/rest/v1/neo/3430385?api_key=jqAGvNAwUIBu4fl9FSOjdm3V4F7hIglRzI6pdX9d"
    },
    "neo_reference_id" : "3430385",
    "name" : "(2008 TX9)",
    "designation" : "2008 TX9",
    "nasa_jpl_url" : "http://ssd.jpl.nasa.gov/sbdb.cgi?sstr=3430385",
    "absolute_magnitude_h" : 26.2,
    "estimated_diameter" : {
      "kilometers" : {
        "estimated_diameter_min" : 0.0152951935,
        "estimated_diameter_max" : 0.0342010925
      },
      "meters" : {
        "estimated_diameter_min" : 15.2951935344,
        "estimated_diameter_max" : 34.201092472
      },
      "miles" : {
        "estimated_diameter_min" : 0.0095039897,
        "estimated_diameter_max" : 0.021251567
      },
      "feet" : {
        "estimated_diameter_min" : 50.1810827555,
        "estimated_diameter_max" : 112.2083122258
      }
    },
    "is_potentially_hazardous_asteroid" : false,
    "close_approach_data" : [ {
      "close_approach_date" : "2008-10-15",
      "epoch_date_close_approach" : 1224054000000,
      "relative_velocity" : {
        "kilometers_per_second" : "10.6026139779",
        "kilometers_per_hour" : "38169.4103204414",
        "miles_per_hour" : "23716.9872071654"
      },
      "miss_distance" : {
        "astronomical" : "0.0292645545",
        "lunar" : "11.3839120865",
        "kilometers" : "4377915",
        "miles" : "2720310.25"
      },
      "orbiting_body" : "Earth"
    } ],
    "orbital_data" : {
      "orbit_id" : "8",
      "orbit_determination_date" : "2017-04-06 09:02:39",
      "first_observation_date" : "2008-10-08",
      "last_observation_date" : "2008-10-10",
      "data_arc_in_days" : 2,
      "observations_used" : 22,
      "orbit_uncertainty" : "8",
      "minimum_orbit_intersection" : ".0173054",
      "jupiter_tisserand_invariant" : "3.754",
      "epoch_osculation" : "2454748.5",
      "eccentricity" : ".510365486605094",
      "semi_major_axis" : "1.912726895250855",
      "inclination" : "7.65187761540786",
      "ascending_node_longitude" : "199.9137789466015",
      "orbital_period" : "966.2241181044772",
      "perihelion_distance" : ".936537102613502",
      "perihelion_argument" : "223.3586091757618",
      "aphelion_distance" : "2.888916687888209",
      "perihelion_time" : "2454786.359533979861",
      "mean_anomaly" : "345.8941295529985",
      "mean_motion" : ".3725843655261288",
      "equinox" : "J2000",
      "orbit_class" : {
        "orbit_class_type" : "APO",
        "orbit_class_range" : "a (semi-major axis) > 1.0 AU; q (perihelion) < 1.017 AU",
        "orbit_class_description" : "Near-Earth asteroid orbits which cross the Earth’s orbit similar to that of 1862 Apollo"
      }
    },
    "is_sentry_object" : false
  } ]
}